[{"OBJECT_NAME":"STARLINK-2748","OBJECT_ID":"2021-044BJ","EPOCH":"2026-03-09T09:53:34.130976","MEAN_MOTION":15.30187135,"ECCENTRICITY":0.00014772,"INCLINATION":53.1612,"RA_OF_ASC_NODE":79.7966,"ARG_OF_PERICENTER":95.3252,"MEAN_ANOMALY":264.7917,"EPHEMERIS_TYPE":0,"CLASSIFICATION_TYPE":"U","NORAD_CAT_ID":48694,"ELEMENT_SET_NO":999,"REV_AT_EPOCH":26427,"BSTAR":-1.3545385e-5,"MEAN_MOTION_DOT":-7.6e-6,"MEAN_MOTION_DDOT":0},{"OBJECT_NAME":"TIANMU-1 09","OBJECT_ID":"2023-101C","EPOCH":"2026-03-09T22:17:34.703232","MEAN_MOTION":15.29080822,"ECCENTRICITY":0.00049013,"INCLINATION":97.267,"RA_OF_ASC_NODE":121.1263,"ARG_OF_PERICENTER":139.4293,"MEAN_ANOMALY":220.7314,"EPHEMERIS_TYPE":0,"CLASSIFICATION_TYPE":"U","NORAD_CAT_ID":57401,"ELEMENT_SET_NO":999,"REV_AT_EPOCH":14647,"BSTAR":0.00030540035,"MEAN_MOTION_DOT":8.553e-5,"MEAN_MOTION_DDOT":0}]
